{
  "type": "FeatureCollection",
  "features": [
    {
      "type": "Feature",
      "properties": {
        "norad_id": 46805,
        "name": "COSMOS 2547 (705K)",
        "group": "glo-ops",
        "lat": -13.92640309679682,
        "lon": -168.3951659422279,
        "alt_km": 19139.382724747713,
        "timestamp": "2025-12-22T11:33:20.700677+00:00",
        "meta_object_name": "COSMOS 2547 (705K)",
        "meta_object_id": "2020-075A",
        "meta_epoch": "2025-12-22T00:46:38.592768",
        "meta_mean_motion": 2.1310024,
        "meta_eccentricity": 0.000611,
        "meta_inclination": 64.5968,
        "meta_ra_of_asc_node": 198.3861,
        "meta_arg_of_pericenter": 227.635,
        "meta_mean_anomaly": 132.3817,
        "meta_ephemeris_type": 0,
        "meta_classification_type": "U",
        "meta_norad_cat_id": 46805,
        "meta_element_set_no": 999,
        "meta_rev_at_epoch": 4013,
        "meta_bstar": 0,
        "meta_mean_motion_dot": 9.6e-07,
        "meta_mean_motion_ddot": 0,
        "tle_line1": "1 46805U 20075A   25356.03239112  .00000096  00000+0  00000+0 0  9992",
        "tle_line2": "2 46805  64.5968 198.3861 0006110 227.6350 132.3817  2.13100240 40138"
      },
      "geometry": {
        "type": "Point",
        "coordinates": [
          -168.3951659422279,
          -13.92640309679682
        ]
      }
    },
    {
      "type": "Feature",
      "properties": {
        "norad_id": 52984,
        "name": "COSMOS 2557 (706K)",
        "group": "glo-ops",
        "lat": -33.341264180340985,
        "lon": 159.0624790535629,
        "alt_km": 19117.390700250657,
        "timestamp": "2025-12-22T11:33:20.700688+00:00",
        "meta_object_name": "COSMOS 2557 (706K)",
        "meta_object_id": "2022-075A",
        "meta_epoch": "2025-12-21T06:13:04.908576",
        "meta_mean_motion": 2.13102077,
        "meta_eccentricity": 0.0013538,
        "meta_inclination": 64.405,
        "meta_ra_of_asc_node": 320.7521,
        "meta_arg_of_pericenter": 278.2868,
        "meta_mean_anomaly": 81.5534,
        "meta_ephemeris_type": 0,
        "meta_classification_type": "U",
        "meta_norad_cat_id": 52984,
        "meta_element_set_no": 999,
        "meta_rev_at_epoch": 2692,
        "meta_bstar": 0,
        "meta_mean_motion_dot": -4.9e-07,
        "meta_mean_motion_ddot": 0,
        "tle_line1": "1 52984U 22075A   25355.25908459 -.00000049  00000+0  00000+0 0  9998",
        "tle_line2": "2 52984  64.4050 320.7521 0013538 278.2868  81.5534  2.13102077 26928"
      },
      "geometry": {
        "type": "Point",
        "coordinates": [
          159.0624790535629,
          -33.341264180340985
        ]
      }
    },
    {
      "type": "Feature",
      "properties": {
        "norad_id": 54031,
        "name": "COSMOS 2559 (707K)",
        "group": "glo-ops",
        "lat": -3.1642962900021927,
        "lon": -40.73833817625024,
        "alt_km": 19159.318291171032,
        "timestamp": "2025-12-22T11:33:20.700699+00:00",
        "meta_object_name": "COSMOS 2559 (707K)",
        "meta_object_id": "2022-130A",
        "meta_epoch": "2025-12-22T00:24:12.513600",
        "meta_mean_motion": 2.13101332,
        "meta_eccentricity": 0.0011568,
        "meta_inclination": 64.3769,
        "meta_ra_of_asc_node": 320.8148,
        "meta_arg_of_pericenter": 191.8908,
        "meta_mean_anomaly": 168.0776,
        "meta_ephemeris_type": 0,
        "meta_classification_type": "U",
        "meta_norad_cat_id": 54031,
        "meta_element_set_no": 999,
        "meta_rev_at_epoch": 2491,
        "meta_bstar": 0,
        "meta_mean_motion_dot": -4.4e-07,
        "meta_mean_motion_ddot": 0,
        "tle_line1": "1 54031U 22130A   25356.01681150 -.00000044  00000+0  00000+0 0  9991",
        "tle_line2": "2 54031  64.3769 320.8148 0011568 191.8908 168.0776  2.13101332 24910"
      },
      "geometry": {
        "type": "Point",
        "coordinates": [
          -40.73833817625024,
          -3.1642962900021927
        ]
      }
    },
    {
      "type": "Feature",
      "properties": {
        "norad_id": 54377,
        "name": "COSMOS 2564 (761)",
        "group": "glo-ops",
        "lat": 54.390229329706244,
        "lon": -22.69515685179398,
        "alt_km": 19122.943963853224,
        "timestamp": "2025-12-22T11:33:20.700709+00:00",
        "meta_object_name": "COSMOS 2564 (761)",
        "meta_object_id": "2022-161A",
        "meta_epoch": "2025-12-21T20:39:47.771712",
        "meta_mean_motion": 2.13102053,
        "meta_eccentricity": 0.0008544,
        "meta_inclination": 64.7387,
        "meta_ra_of_asc_node": 198.5958,
        "meta_arg_of_pericenter": 203.7268,
        "meta_mean_anomaly": 156.3034,
        "meta_ephemeris_type": 0,
        "meta_classification_type": "U",
        "meta_norad_cat_id": 54377,
        "meta_element_set_no": 999,
        "meta_rev_at_epoch": 2385,
        "meta_bstar": 0,
        "meta_mean_motion_dot": 9.6e-07,
        "meta_mean_motion_ddot": 0,
        "tle_line1": "1 54377U 22161A   25355.86096958  .00000096  00000+0  00000+0 0  9992",
        "tle_line2": "2 54377  64.7387 198.5958 0008544 203.7268 156.3034  2.13102053 23854"
      },
      "geometry": {
        "type": "Point",
        "coordinates": [
          -22.69515685179398,
          54.390229329706244
        ]
      }
    },
    {
      "type": "Feature",
      "properties": {
        "norad_id": 57517,
        "name": "COSMOS 2569 (703K)",
        "group": "glo-ops",
        "lat": 60.92035451233198,
        "lon": -157.50257178985072,
        "alt_km": 19150.61168076408,
        "timestamp": "2025-12-22T11:33:20.700720+00:00",
        "meta_object_name": "COSMOS 2569 (703K)",
        "meta_object_id": "2023-114A",
        "meta_epoch": "2025-12-20T11:11:48.591168",
        "meta_mean_motion": 2.13103983,
        "meta_eccentricity": 0.00107986,
        "meta_inclination": 65.1981,
        "meta_ra_of_asc_node": 78.6524,
        "meta_arg_of_pericenter": 287.0398,
        "meta_mean_anomaly": 72.8764,
        "meta_ephemeris_type": 0,
        "meta_classification_type": "U",
        "meta_norad_cat_id": 57517,
        "meta_element_set_no": 999,
        "meta_rev_at_epoch": 1845,
        "meta_bstar": 0,
        "meta_mean_motion_dot": -1.8e-07,
        "meta_mean_motion_ddot": 0,
        "tle_line1": "1 57517U 23114A   25354.46653462 -.00000018  00000+0  00000+0 0  9999",
        "tle_line2": "2 57517  65.1981  78.6524 0010798 287.0398  72.8764  2.13103983 18453"
      },
      "geometry": {
        "type": "Point",
        "coordinates": [
          -157.50257178985072,
          60.92035451233198
        ]
      }
    },
    {
      "type": "Feature",
      "properties": {
        "norad_id": 63130,
        "name": "COSMOS 2584 (704K)",
        "group": "glo-ops",
        "lat": -11.533856816094255,
        "lon": -95.71243648905504,
        "alt_km": 19114.141766476267,
        "timestamp": "2025-12-22T11:33:20.700731+00:00",
        "meta_object_name": "COSMOS 2584 (704K)",
        "meta_object_id": "2025-042A",
        "meta_epoch": "2025-12-21T07:00:00.966240",
        "meta_mean_motion": 2.13103074,
        "meta_eccentricity": 0.00077364,
        "meta_inclination": 64.9804,
        "meta_ra_of_asc_node": 78.8547,
        "meta_arg_of_pericenter": 219.241,
        "meta_mean_anomaly": 140.7412,
        "meta_ephemeris_type": 0,
        "meta_classification_type": "U",
        "meta_norad_cat_id": 63130,
        "meta_element_set_no": 999,
        "meta_rev_at_epoch": 625,
        "meta_bstar": 0,
        "meta_mean_motion_dot": -1.1e-07,
        "meta_mean_motion_ddot": 0,
        "tle_line1": "1 63130U 25042A   25355.29167785 -.00000011  00000+0  00000+0 0  9992",
        "tle_line2": "2 63130  64.9804  78.8547 0007736 219.2410 140.7412  2.13103074  6250"
      },
      "geometry": {
        "type": "Point",
        "coordinates": [
          -95.71243648905504,
          -11.533856816094255
        ]
      }
    },
    {
      "type": "Feature",
      "properties": {
        "norad_id": 65590,
        "name": "COSMOS 2596 (708K)",
        "group": "glo-ops",
        "lat": -42.89736244227127,
        "lon": -64.88633401036576,
        "alt_km": 19099.340556156516,
        "timestamp": "2025-12-22T11:33:20.700742+00:00",
        "meta_object_name": "COSMOS 2596 (708K)",
        "meta_object_id": "2025-206B",
        "meta_epoch": "2025-12-22T03:59:43.719936",
        "meta_mean_motion": 2.1310041,
        "meta_eccentricity": 0.0014089,
        "meta_inclination": 64.7392,
        "meta_ra_of_asc_node": 321.1476,
        "meta_arg_of_pericenter": 307.2643,
        "meta_mean_anomaly": 122.2256,
        "meta_ephemeris_type": 0,
        "meta_classification_type": "U",
        "meta_norad_cat_id": 65590,
        "meta_element_set_no": 999,
        "meta_rev_at_epoch": 214,
        "meta_bstar": 0,
        "meta_mean_motion_dot": -4.3e-07,
        "meta_mean_motion_ddot": 0,
        "tle_line1": "1 65590U 25206B   25356.16647824 -.00000043  00000+0  00000+0 0  9995",
        "tle_line2": "2 65590  64.7392 321.1476 0014089 307.2643 122.2256  2.13100410  2148"
      },
      "geometry": {
        "type": "Point",
        "coordinates": [
          -64.88633401036576,
          -42.89736244227127
        ]
      }
    }
  ]
}